[{"OBJECT_NAME":"STARLINK-2640","OBJECT_ID":"2021-040L","EPOCH":"2026-03-29T04:40:30.522144","MEAN_MOTION":15.3020259,"ECCENTRICITY":0.000139,"INCLINATION":53.1615,"RA_OF_ASC_NODE":87.5422,"ARG_OF_PERICENTER":82.2957,"MEAN_ANOMALY":277.8202,"EPHEMERIS_TYPE":0,"CLASSIFICATION_TYPE":"U","NORAD_CAT_ID":48438,"ELEMENT_SET_NO":999,"REV_AT_EPOCH":26966,"BSTAR":6.9627e-5,"MEAN_MOTION_DOT":1.704e-5,"MEAN_MOTION_DDOT":0},{"OBJECT_NAME":"STARLINK-2583","OBJECT_ID":"2021-040M","EPOCH":"2026-03-29T04:37:28.151616","MEAN_MOTION":15.30211482,"ECCENTRICITY":0.0001593,"INCLINATION":53.1608,"RA_OF_ASC_NODE":87.5481,"ARG_OF_PERICENTER":108.094,"MEAN_ANOMALY":252.0235,"EPHEMERIS_TYPE":0,"CLASSIFICATION_TYPE":"U","NORAD_CAT_ID":48439,"ELEMENT_SET_NO":999,"REV_AT_EPOCH":26966,"BSTAR":0.00044465,"MEAN_MOTION_DOT":0.00012837,"MEAN_MOTION_DDOT":0},{"OBJECT_NAME":"STARLINK-2682","OBJECT_ID":"2021-040N","EPOCH":"2026-03-30T04:03:43.250976","MEAN_MOTION":15.30191886,"ECCENTRICITY":0.0001221,"INCLINATION":53.1592,"RA_OF_ASC_NODE":83.0147,"ARG_OF_PERICENTER":91.7219,"MEAN_ANOMALY":268.3921,"EPHEMERIS_TYPE":0,"CLASSIFICATION_TYPE":"U","NORAD_CAT_ID":48440,"ELEMENT_SET_NO":999,"REV_AT_EPOCH":26981,"BSTAR":5.6503e-5,"MEAN_MOTION_DOT":1.314e-5,"MEAN_MOTION_DDOT":0},{"OBJECT_NAME":"STARLINK-2702","OBJECT_ID":"2021-040P","EPOCH":"2026-03-29T23:17:00.836448","MEAN_MOTION":15.30187574,"ECCENTRICITY":0.0001567,"INCLINATION":53.1599,"RA_OF_ASC_NODE":83.9461,"ARG_OF_PERICENTER":84.1876,"MEAN_ANOMALY":275.9303,"EPHEMERIS_TYPE":0,"CLASSIFICATION_TYPE":"U","NORAD_CAT_ID":48441,"ELEMENT_SET_NO":999,"REV_AT_EPOCH":26978,"BSTAR":-3.133e-5,"MEAN_MOTION_DOT":-1.287e-5,"MEAN_MOTION_DDOT":0},{"OBJECT_NAME":"STARLINK-2644","OBJECT_ID":"2021-040Q","EPOCH":"2026-03-29T04:19:15.822336","MEAN_MOTION":15.30207953,"ECCENTRICITY":0.0001541,"INCLINATION":53.1601,"RA_OF_ASC_NODE":87.5878,"ARG_OF_PERICENTER":98.4611,"MEAN_ANOMALY":261.6564,"EPHEMERIS_TYPE":0,"CLASSIFICATION_TYPE":"U","NORAD_CAT_ID":48442,"ELEMENT_SET_NO":999,"REV_AT_EPOCH":26966,"BSTAR":0.00046836,"MEAN_MOTION_DOT":0.00013541,"MEAN_MOTION_DDOT":0},{"OBJECT_NAME":"STARLINK-2663","OBJECT_ID":"2021-040R","EPOCH":"2026-03-29T04:14:42.783648","MEAN_MOTION":15.30206291,"ECCENTRICITY":0.0001341,"INCLINATION":53.1612,"RA_OF_ASC_NODE":87.6133,"ARG_OF_PERICENTER":92.4066,"MEAN_ANOMALY":267.7089,"EPHEMERIS_TYPE":0,"CLASSIFICATION_TYPE":"U","NORAD_CAT_ID":48443,"ELEMENT_SET_NO":999,"REV_AT_EPOCH":26966,"BSTAR":0.00033529,"MEAN_MOTION_DOT":9.586e-5,"MEAN_MOTION_DDOT":0},{"OBJECT_NAME":"STARLINK-2645","OBJECT_ID":"2021-040S","EPOCH":"2026-03-29T04:10:09.157440","MEAN_MOTION":15.30213157,"ECCENTRICITY":0.0001553,"INCLINATION":53.1623,"RA_OF_ASC_NODE":87.626,"ARG_OF_PERICENTER":84.8084,"MEAN_ANOMALY":275.3094,"EPHEMERIS_TYPE":0,"CLASSIFICATION_TYPE":"U","NORAD_CAT_ID":48444,"ELEMENT_SET_NO":999,"REV_AT_EPOCH":26966,"BSTAR":1.823e-6,"MEAN_MOTION_DOT":-3.05e-6,"MEAN_MOTION_DDOT":0},{"OBJECT_NAME":"STARLINK-2634","OBJECT_ID":"2021-040T","EPOCH":"2026-03-29T04:05:37.222080","MEAN_MOTION":15.30214355,"ECCENTRICITY":0.0001486,"INCLINATION":53.1597,"RA_OF_ASC_NODE":87.6455,"ARG_OF_PERICENTER":80.3303,"MEAN_ANOMALY":279.7865,"EPHEMERIS_TYPE":0,"CLASSIFICATION_TYPE":"U","NORAD_CAT_ID":48445,"ELEMENT_SET_NO":999,"REV_AT_EPOCH":26966,"BSTAR":0.00036867,"MEAN_MOTION_DOT":0.0001058,"MEAN_MOTION_DDOT":0},{"OBJECT_NAME":"STARLINK-2655","OBJECT_ID":"2021-040X","EPOCH":"2026-03-30T04:55:19.784640","MEAN_MOTION":15.3020477,"ECCENTRICITY":0.0001437,"INCLINATION":53.1591,"RA_OF_ASC_NODE":82.8496,"ARG_OF_PERICENTER":109.9322,"MEAN_ANOMALY":250.1834,"EPHEMERIS_TYPE":0,"CLASSIFICATION_TYPE":"U","NORAD_CAT_ID":48449,"ELEMENT_SET_NO":999,"REV_AT_EPOCH":26982,"BSTAR":0.00053911,"MEAN_MOTION_DOT":0.00015644,"MEAN_MOTION_DDOT":0},{"OBJECT_NAME":"STARLINK-2703","OBJECT_ID":"2021-040AA","EPOCH":"2026-03-30T04:50:45.111264","MEAN_MOTION":15.30192568,"ECCENTRICITY":0.0001417,"INCLINATION":53.1596,"RA_OF_ASC_NODE":82.8762,"ARG_OF_PERICENTER":92.3048,"MEAN_ANOMALY":267.8115,"EPHEMERIS_TYPE":0,"CLASSIFICATION_TYPE":"U","NORAD_CAT_ID":48452,"ELEMENT_SET_NO":999,"REV_AT_EPOCH":26982,"BSTAR":4.9912e-5,"MEAN_MOTION_DOT":1.119e-5,"MEAN_MOTION_DDOT":0},{"OBJECT_NAME":"STARLINK-2620","OBJECT_ID":"2021-040AB","EPOCH":"2026-03-30T04:37:05.722176","MEAN_MOTION":15.30208556,"ECCENTRICITY":0.0001378,"INCLINATION":53.1586,"RA_OF_ASC_NODE":82.8838,"ARG_OF_PERICENTER":80.169,"MEAN_ANOMALY":279.9467,"EPHEMERIS_TYPE":0,"CLASSIFICATION_TYPE":"U","NORAD_CAT_ID":48453,"ELEMENT_SET_NO":999,"REV_AT_EPOCH":26982,"BSTAR":0.00031942,"MEAN_MOTION_DOT":9.115e-5,"MEAN_MOTION_DDOT":0},{"OBJECT_NAME":"STARLINK-2654","OBJECT_ID":"2021-040AC","EPOCH":"2026-03-30T04:32:31.828128","MEAN_MOTION":15.30197099,"ECCENTRICITY":0.0001377,"INCLINATION":53.1596,"RA_OF_ASC_NODE":82.9038,"ARG_OF_PERICENTER":100.3459,"MEAN_ANOMALY":259.7697,"EPHEMERIS_TYPE":0,"CLASSIFICATION_TYPE":"U","NORAD_CAT_ID":48454,"ELEMENT_SET_NO":999,"REV_AT_EPOCH":26982,"BSTAR":0.0001681,"MEAN_MOTION_DOT":4.622e-5,"MEAN_MOTION_DDOT":0},{"OBJECT_NAME":"STARLINK-2497","OBJECT_ID":"2021-040AD","EPOCH":"2026-03-30T04:27:59.420160","MEAN_MOTION":15.30194668,"ECCENTRICITY":0.0001562,"INCLINATION":53.1586,"RA_OF_ASC_NODE":82.9212,"ARG_OF_PERICENTER":82.9573,"MEAN_ANOMALY":277.1605,"EPHEMERIS_TYPE":0,"CLASSIFICATION_TYPE":"U","NORAD_CAT_ID":48455,"ELEMENT_SET_NO":999,"REV_AT_EPOCH":26981,"BSTAR":0.00011219,"MEAN_MOTION_DOT":2.964e-5,"MEAN_MOTION_DDOT":0},{"OBJECT_NAME":"STARLINK-2698","OBJECT_ID":"2021-040AG","EPOCH":"2026-03-30T00:23:54.257280","MEAN_MOTION":15.30190139,"ECCENTRICITY":0.0001748,"INCLINATION":53.1601,"RA_OF_ASC_NODE":84.3812,"ARG_OF_PERICENTER":109.9791,"MEAN_ANOMALY":250.1399,"EPHEMERIS_TYPE":0,"CLASSIFICATION_TYPE":"U","NORAD_CAT_ID":48458,"ELEMENT_SET_NO":999,"REV_AT_EPOCH":27050,"BSTAR":-0.0001685,"MEAN_MOTION_DOT":-5.345e-5,"MEAN_MOTION_DDOT":0},{"OBJECT_NAME":"STARLINK-2579","OBJECT_ID":"2021-040AH","EPOCH":"2026-03-29T23:32:10.992192","MEAN_MOTION":15.30205653,"ECCENTRICITY":0.0002353,"INCLINATION":53.1606,"RA_OF_ASC_NODE":83.9115,"ARG_OF_PERICENTER":87.1311,"MEAN_ANOMALY":272.9959,"EPHEMERIS_TYPE":0,"CLASSIFICATION_TYPE":"U","NORAD_CAT_ID":48459,"ELEMENT_SET_NO":999,"REV_AT_EPOCH":26980,"BSTAR":0.00022816,"MEAN_MOTION_DOT":6.405e-5,"MEAN_MOTION_DDOT":0},{"OBJECT_NAME":"STARLINK-2582","OBJECT_ID":"2021-040AJ","EPOCH":"2026-03-30T02:24:23.599296","MEAN_MOTION":15.59869602,"ECCENTRICITY":0.0004596,"INCLINATION":53.0576,"RA_OF_ASC_NODE":31.3973,"ARG_OF_PERICENTER":93.0198,"MEAN_ANOMALY":267.134,"EPHEMERIS_TYPE":0,"CLASSIFICATION_TYPE":"U","NORAD_CAT_ID":48460,"ELEMENT_SET_NO":999,"REV_AT_EPOCH":27105,"BSTAR":0.0018276,"MEAN_MOTION_DOT":0.00152087,"MEAN_MOTION_DDOT":0},{"OBJECT_NAME":"STARLINK-2683","OBJECT_ID":"2021-040AL","EPOCH":"2026-03-30T04:54:36.310752","MEAN_MOTION":15.30219704,"ECCENTRICITY":0.0001941,"INCLINATION":53.1597,"RA_OF_ASC_NODE":95.7439,"ARG_OF_PERICENTER":85.2323,"MEAN_ANOMALY":274.8899,"EPHEMERIS_TYPE":0,"CLASSIFICATION_TYPE":"U","NORAD_CAT_ID":48462,"ELEMENT_SET_NO":999,"REV_AT_EPOCH":26964,"BSTAR":0.0013258,"MEAN_MOTION_DOT":0.0003914,"MEAN_MOTION_DDOT":0},{"OBJECT_NAME":"STARLINK-2686","OBJECT_ID":"2021-040AN","EPOCH":"2026-03-30T04:48:26.571456","MEAN_MOTION":15.29359562,"ECCENTRICITY":0.0001481,"INCLINATION":53.1563,"RA_OF_ASC_NODE":95.588,"ARG_OF_PERICENTER":125.3177,"MEAN_ANOMALY":234.7962,"EPHEMERIS_TYPE":0,"CLASSIFICATION_TYPE":"U","NORAD_CAT_ID":48464,"ELEMENT_SET_NO":999,"REV_AT_EPOCH":26964,"BSTAR":0.00021348,"MEAN_MOTION_DOT":5.81e-5,"MEAN_MOTION_DDOT":0},{"OBJECT_NAME":"STARLINK-2681","OBJECT_ID":"2021-040AP","EPOCH":"2026-03-30T01:00:56.130912","MEAN_MOTION":15.4376402,"ECCENTRICITY":0.0001742,"INCLINATION":53.1415,"RA_OF_ASC_NODE":95.8386,"ARG_OF_PERICENTER":70.9879,"MEAN_ANOMALY":289.1316,"EPHEMERIS_TYPE":0,"CLASSIFICATION_TYPE":"U","NORAD_CAT_ID":48465,"ELEMENT_SET_NO":999,"REV_AT_EPOCH":26963,"BSTAR":0.00078671,"MEAN_MOTION_DOT":0.00035883,"MEAN_MOTION_DDOT":0},{"OBJECT_NAME":"STARLINK-2687","OBJECT_ID":"2021-040AQ","EPOCH":"2026-03-29T04:14:01.716000","MEAN_MOTION":15.30213014,"ECCENTRICITY":0.0001045,"INCLINATION":53.1584,"RA_OF_ASC_NODE":100.5914,"ARG_OF_PERICENTER":86.3535,"MEAN_ANOMALY":273.7585,"EPHEMERIS_TYPE":0,"CLASSIFICATION_TYPE":"U","NORAD_CAT_ID":48466,"ELEMENT_SET_NO":999,"REV_AT_EPOCH":26949,"BSTAR":0.00054469,"MEAN_MOTION_DOT":0.00015814,"MEAN_MOTION_DDOT":0},{"OBJECT_NAME":"STARLINK-2659","OBJECT_ID":"2021-040AR","EPOCH":"2026-03-30T00:59:27.644352","MEAN_MOTION":15.30204308,"ECCENTRICITY":0.0001755,"INCLINATION":53.1618,"RA_OF_ASC_NODE":96.482,"ARG_OF_PERICENTER":96.1402,"MEAN_ANOMALY":263.9798,"EPHEMERIS_TYPE":0,"CLASSIFICATION_TYPE":"U","NORAD_CAT_ID":48467,"ELEMENT_SET_NO":999,"REV_AT_EPOCH":26962,"BSTAR":9.3037e-5,"MEAN_MOTION_DOT":2.397e-5,"MEAN_MOTION_DDOT":0},{"OBJECT_NAME":"STARLINK-2685","OBJECT_ID":"2021-040AS","EPOCH":"2026-03-30T04:22:48.965088","MEAN_MOTION":15.30198404,"ECCENTRICITY":0.0001634,"INCLINATION":53.1592,"RA_OF_ASC_NODE":96.1181,"ARG_OF_PERICENTER":116.6854,"MEAN_ANOMALY":243.4314,"EPHEMERIS_TYPE":0,"CLASSIFICATION_TYPE":"U","NORAD_CAT_ID":48468,"ELEMENT_SET_NO":999,"REV_AT_EPOCH":26964,"BSTAR":-2.9808e-5,"MEAN_MOTION_DOT":-1.242e-5,"MEAN_MOTION_DDOT":0},{"OBJECT_NAME":"STARLINK-2661","OBJECT_ID":"2021-040AT","EPOCH":"2026-03-30T01:04:00.614784","MEAN_MOTION":15.30230672,"ECCENTRICITY":0.0002136,"INCLINATION":53.1576,"RA_OF_ASC_NODE":96.5316,"ARG_OF_PERICENTER":85.5316,"MEAN_ANOMALY":274.5929,"EPHEMERIS_TYPE":0,"CLASSIFICATION_TYPE":"U","NORAD_CAT_ID":48469,"ELEMENT_SET_NO":999,"REV_AT_EPOCH":26962,"BSTAR":0.00049619,"MEAN_MOTION_DOT":0.00014379,"MEAN_MOTION_DDOT":0}]
